[{"OBJECT_NAME":"IRIDIUM 152","OBJECT_ID":"2018-047D","EPOCH":"2026-02-01T19:41:46.364064","MEAN_MOTION":14.34217052,"ECCENTRICITY":0.0002238,"INCLINATION":86.4015,"RA_OF_ASC_NODE":144.9183,"ARG_OF_PERICENTER":99.0649,"MEAN_ANOMALY":261.08,"EPHEMERIS_TYPE":0,"CLASSIFICATION_TYPE":"U","NORAD_CAT_ID":43479,"ELEMENT_SET_NO":999,"REV_AT_EPOCH":40308,"BSTAR":-2.629134e-5,"MEAN_MOTION_DOT":-5.4e-7,"MEAN_MOTION_DDOT":0},{"OBJECT_NAME":"IRIDIUM 147","OBJECT_ID":"2018-047E","EPOCH":"2026-02-01T19:50:54.297312","MEAN_MOTION":14.34216216,"ECCENTRICITY":0.00019691,"INCLINATION":86.4016,"RA_OF_ASC_NODE":144.9184,"ARG_OF_PERICENTER":95.8633,"MEAN_ANOMALY":264.2787,"EPHEMERIS_TYPE":0,"CLASSIFICATION_TYPE":"U","NORAD_CAT_ID":43480,"ELEMENT_SET_NO":999,"REV_AT_EPOCH":40308,"BSTAR":3.866127e-6,"MEAN_MOTION_DOT":3.1e-7,"MEAN_MOTION_DDOT":0},{"OBJECT_NAME":"IRIDIUM 110","OBJECT_ID":"2018-047F","EPOCH":"2026-02-01T16:39:06.205248","MEAN_MOTION":14.34218331,"ECCENTRICITY":0.00022963,"INCLINATION":86.4022,"RA_OF_ASC_NODE":145.0622,"ARG_OF_PERICENTER":107.1832,"MEAN_ANOMALY":252.9615,"EPHEMERIS_TYPE":0,"CLASSIFICATION_TYPE":"U","NORAD_CAT_ID":43481,"ELEMENT_SET_NO":999,"REV_AT_EPOCH":40305,"BSTAR":-1.2886304e-5,"MEAN_MOTION_DOT":-1.6e-7,"MEAN_MOTION_DDOT":0},{"OBJECT_NAME":"IRIDIUM 162","OBJECT_ID":"2018-047G","EPOCH":"2026-02-01T19:53:35.847168","MEAN_MOTION":14.43284305,"ECCENTRICITY":0.00023775,"INCLINATION":86.454,"RA_OF_ASC_NODE":144.9471,"ARG_OF_PERICENTER":92.3825,"MEAN_ANOMALY":267.7648,"EPHEMERIS_TYPE":0,"CLASSIFICATION_TYPE":"U","NORAD_CAT_ID":43482,"ELEMENT_SET_NO":999,"REV_AT_EPOCH":40560,"BSTAR":0.00012473989,"MEAN_MOTION_DOT":4.4e-6,"MEAN_MOTION_DDOT":0},{"OBJECT_NAME":"IRIDIUM 160","OBJECT_ID":"2018-061A","EPOCH":"2026-02-01T17:01:34.609440","MEAN_MOTION":14.34216843,"ECCENTRICITY":0.00021824,"INCLINATION":86.3977,"RA_OF_ASC_NODE":113.464,"ARG_OF_PERICENTER":100.8724,"MEAN_ANOMALY":259.2717,"EPHEMERIS_TYPE":0,"CLASSIFICATION_TYPE":"U","NORAD_CAT_ID":43569,"ELEMENT_SET_NO":999,"REV_AT_EPOCH":39395,"BSTAR":8.3533335e-5,"MEAN_MOTION_DOT":2.54e-6,"MEAN_MOTION_DDOT":0},{"OBJECT_NAME":"IRIDIUM 166","OBJECT_ID":"2018-061B","EPOCH":"2026-02-01T17:38:06.519552","MEAN_MOTION":14.34217819,"ECCENTRICITY":0.0002043,"INCLINATION":86.3973,"RA_OF_ASC_NODE":113.4056,"ARG_OF_PERICENTER":95.6645,"MEAN_ANOMALY":264.4784,"EPHEMERIS_TYPE":0,"CLASSIFICATION_TYPE":"U","NORAD_CAT_ID":43570,"ELEMENT_SET_NO":999,"REV_AT_EPOCH":39398,"BSTAR":1.2106334e-5,"MEAN_MOTION_DOT":5.4e-7,"MEAN_MOTION_DDOT":0},{"OBJECT_NAME":"IRIDIUM 158","OBJECT_ID":"2018-061C","EPOCH":"2026-02-01T18:32:54.594240","MEAN_MOTION":14.3421685,"ECCENTRICITY":0.00023559,"INCLINATION":86.3974,"RA_OF_ASC_NODE":113.3998,"ARG_OF_PERICENTER":94.0787,"MEAN_ANOMALY":266.0678,"EPHEMERIS_TYPE":0,"CLASSIFICATION_TYPE":"U","NORAD_CAT_ID":43571,"ELEMENT_SET_NO":999,"REV_AT_EPOCH":39395,"BSTAR":6.9689958e-5,"MEAN_MOTION_DOT":2.15e-6,"MEAN_MOTION_DDOT":0},{"OBJECT_NAME":"IRIDIUM 165","OBJECT_ID":"2018-061D","EPOCH":"2026-02-01T17:28:58.765152","MEAN_MOTION":14.34216458,"ECCENTRICITY":0.00020505,"INCLINATION":86.3976,"RA_OF_ASC_NODE":113.4621,"ARG_OF_PERICENTER":95.2012,"MEAN_ANOMALY":264.9418,"EPHEMERIS_TYPE":0,"CLASSIFICATION_TYPE":"U","NORAD_CAT_ID":43572,"ELEMENT_SET_NO":999,"REV_AT_EPOCH":39397,"BSTAR":0.00010239427,"MEAN_MOTION_DOT":3.07e-6,"MEAN_MOTION_DDOT":0},{"OBJECT_NAME":"IRIDIUM 155","OBJECT_ID":"2018-061E","EPOCH":"2026-02-01T18:14:38.472864","MEAN_MOTION":14.34216102,"ECCENTRICITY":0.00021874,"INCLINATION":86.3973,"RA_OF_ASC_NODE":113.3247,"ARG_OF_PERICENTER":91.7204,"MEAN_ANOMALY":268.4242,"EPHEMERIS_TYPE":0,"CLASSIFICATION_TYPE":"U","NORAD_CAT_ID":43573,"ELEMENT_SET_NO":999,"REV_AT_EPOCH":39394,"BSTAR":-1.835901e-6,"MEAN_MOTION_DOT":1.5e-7,"MEAN_MOTION_DDOT":0},{"OBJECT_NAME":"IRIDIUM 154","OBJECT_ID":"2018-061F","EPOCH":"2026-02-01T17:47:15.814464","MEAN_MOTION":14.34218162,"ECCENTRICITY":0.00019858,"INCLINATION":86.3975,"RA_OF_ASC_NODE":113.4595,"ARG_OF_PERICENTER":95.9201,"MEAN_ANOMALY":264.2222,"EPHEMERIS_TYPE":0,"CLASSIFICATION_TYPE":"U","NORAD_CAT_ID":43574,"ELEMENT_SET_NO":999,"REV_AT_EPOCH":39399,"BSTAR":0.00011803141,"MEAN_MOTION_DOT":3.5e-6,"MEAN_MOTION_DDOT":0},{"OBJECT_NAME":"IRIDIUM 163","OBJECT_ID":"2018-061G","EPOCH":"2026-02-01T17:19:50.749824","MEAN_MOTION":14.34217178,"ECCENTRICITY":0.0002269,"INCLINATION":86.3972,"RA_OF_ASC_NODE":113.3869,"ARG_OF_PERICENTER":96.587,"MEAN_ANOMALY":263.5584,"EPHEMERIS_TYPE":0,"CLASSIFICATION_TYPE":"U","NORAD_CAT_ID":43575,"ELEMENT_SET_NO":999,"REV_AT_EPOCH":39396,"BSTAR":0.0001009443,"MEAN_MOTION_DOT":3.02e-6,"MEAN_MOTION_DDOT":0},{"OBJECT_NAME":"IRIDIUM 156","OBJECT_ID":"2018-061H","EPOCH":"2026-02-01T18:23:46.526208","MEAN_MOTION":14.34216764,"ECCENTRICITY":0.00021643,"INCLINATION":86.3973,"RA_OF_ASC_NODE":113.3755,"ARG_OF_PERICENTER":90.3954,"MEAN_ANOMALY":269.749,"EPHEMERIS_TYPE":0,"CLASSIFICATION_TYPE":"U","NORAD_CAT_ID":43576,"ELEMENT_SET_NO":999,"REV_AT_EPOCH":39396,"BSTAR":3.6213866e-5,"MEAN_MOTION_DOT":1.21e-6,"MEAN_MOTION_DDOT":0},{"OBJECT_NAME":"IRIDIUM 164","OBJECT_ID":"2018-061J","EPOCH":"2026-02-01T16:15:54.309024","MEAN_MOTION":14.34217206,"ECCENTRICITY":0.00019947,"INCLINATION":86.3978,"RA_OF_ASC_NODE":113.4508,"ARG_OF_PERICENTER":100.5679,"MEAN_ANOMALY":259.5742,"EPHEMERIS_TYPE":0,"CLASSIFICATION_TYPE":"U","NORAD_CAT_ID":43577,"ELEMENT_SET_NO":999,"REV_AT_EPOCH":39399,"BSTAR":1.9221939e-5,"MEAN_MOTION_DOT":7.4e-7,"MEAN_MOTION_DDOT":0},{"OBJECT_NAME":"IRIDIUM 159","OBJECT_ID":"2018-061K","EPOCH":"2026-02-01T17:10:42.802752","MEAN_MOTION":14.34213881,"ECCENTRICITY":0.00021979,"INCLINATION":86.3972,"RA_OF_ASC_NODE":113.3745,"ARG_OF_PERICENTER":100.4413,"MEAN_ANOMALY":259.7031,"EPHEMERIS_TYPE":0,"CLASSIFICATION_TYPE":"U","NORAD_CAT_ID":43578,"ELEMENT_SET_NO":999,"REV_AT_EPOCH":39396,"BSTAR":9.1041561e-5,"MEAN_MOTION_DOT":2.75e-6,"MEAN_MOTION_DDOT":0},{"OBJECT_NAME":"IRIDIUM 180","OBJECT_ID":"2019-002A","EPOCH":"2026-02-01T18:50:26.125440","MEAN_MOTION":14.34216239,"ECCENTRICITY":0.00022039,"INCLINATION":86.3923,"RA_OF_ASC_NODE":50.1864,"ARG_OF_PERICENTER":95.0063,"MEAN_ANOMALY":265.1385,"EPHEMERIS_TYPE":0,"CLASSIFICATION_TYPE":"U","NORAD_CAT_ID":43922,"ELEMENT_SET_NO":999,"REV_AT_EPOCH":36958,"BSTAR":-1.9610246e-5,"MEAN_MOTION_DOT":-3.5e-7,"MEAN_MOTION_DDOT":0},{"OBJECT_NAME":"IRIDIUM 176","OBJECT_ID":"2019-002B","EPOCH":"2026-02-01T23:18:33.928992","MEAN_MOTION":14.72246274,"ECCENTRICITY":0.00024669,"INCLINATION":86.6048,"RA_OF_ASC_NODE":50.0712,"ARG_OF_PERICENTER":90.2938,"MEAN_ANOMALY":269.8562,"EPHEMERIS_TYPE":0,"CLASSIFICATION_TYPE":"U","NORAD_CAT_ID":43923,"ELEMENT_SET_NO":999,"REV_AT_EPOCH":37935,"BSTAR":5.7475884e-5,"MEAN_MOTION_DOT":3.87e-6,"MEAN_MOTION_DDOT":0},{"OBJECT_NAME":"IRIDIUM 168","OBJECT_ID":"2019-002C","EPOCH":"2026-02-01T23:42:42.943392","MEAN_MOTION":14.34217921,"ECCENTRICITY":0.00022548,"INCLINATION":86.3927,"RA_OF_ASC_NODE":50.1749,"ARG_OF_PERICENTER":91.5474,"MEAN_ANOMALY":268.5981,"EPHEMERIS_TYPE":0,"CLASSIFICATION_TYPE":"U","NORAD_CAT_ID":43924,"ELEMENT_SET_NO":999,"REV_AT_EPOCH":36959,"BSTAR":2.7964929e-5,"MEAN_MOTION_DOT":9.8e-7,"MEAN_MOTION_DDOT":0}]
