IRIDIUM 152             
1 43479U 18047D   26032.82067551 -.00000054  00000+0 -26291-4 0  9998
2 43479  86.4015 144.9183 0002238  99.0649 261.0800 14.34217052403086
IRIDIUM 147             
1 43480U 18047E   26032.82701733  .00000031  00000+0  38661-5 0  9995
2 43480  86.4016 144.9184 0001969  95.8633 264.2787 14.34216216403087
IRIDIUM 110             
1 43481U 18047F   26032.69382182 -.00000016  00000+0 -12886-4 0  9999
2 43481  86.4022 145.0622 0002296 107.1832 252.9615 14.34218331403057
IRIDIUM 162             
1 43482U 18047G   26032.82888712  .00000440  00000+0  12474-3 0  9996
2 43482  86.4540 144.9471 0002377  92.3825 267.7648 14.43284305405607
IRIDIUM 160             
1 43569U 18061A   26032.70942835  .00000254  00000+0  83533-4 0  9990
2 43569  86.3977 113.4640 0002182 100.8724 259.2717 14.34216843393951
IRIDIUM 166             
1 43570U 18061B   26032.73479768  .00000054  00000+0  12106-4 0  9991
2 43570  86.3973 113.4056 0002043  95.6645 264.4784 14.34217819393988
IRIDIUM 158             
1 43571U 18061C   26032.77285410  .00000215  00000+0  69690-4 0  9994
2 43571  86.3974 113.3998 0002355  94.0787 266.0678 14.34216850393951
IRIDIUM 165             
1 43572U 18061D   26032.72845793  .00000307  00000+0  10239-3 0  9992
2 43572  86.3976 113.4621 0002050  95.2012 264.9418 14.34216458393979
IRIDIUM 155             
1 43573U 18061E   26032.76016751  .00000015  00000+0 -18359-5 0  9991
2 43573  86.3973 113.3247 0002187  91.7204 268.4242 14.34216102393942
IRIDIUM 154             
1 43574U 18061F   26032.74115526  .00000350  00000+0  11803-3 0  9996
2 43574  86.3975 113.4595 0001985  95.9201 264.2222 14.34218162393995
IRIDIUM 163             
1 43575U 18061G   26032.72211516  .00000302  00000+0  10094-3 0  9999
2 43575  86.3972 113.3869 0002269  96.5870 263.5584 14.34217178393967
IRIDIUM 156             
1 43576U 18061H   26032.76651072  .00000121  00000+0  36214-4 0  9991
2 43576  86.3973 113.3755 0002164  90.3954 269.7490 14.34216764393966
IRIDIUM 164             
1 43577U 18061J   26032.67771191  .00000074  00000+0  19222-4 0  9994
2 43577  86.3978 113.4508 0001994 100.5679 259.5742 14.34217206393999
IRIDIUM 159             
1 43578U 18061K   26032.71577318  .00000275  00000+0  91042-4 0  9998
2 43578  86.3972 113.3745 0002197 100.4413 259.7031 14.34213881393962
IRIDIUM 180             
1 43922U 19002A   26032.78502460 -.00000035  00000+0 -19610-4 0  9997
2 43922  86.3923  50.1864 0002203  95.0063 265.1385 14.34216239369583
IRIDIUM 176             
1 43923U 19002B   26032.97122603  .00000387  00000+0  57476-4 0  9996
2 43923  86.6048  50.0712 0002466  90.2938 269.8562 14.72246274379353
IRIDIUM 168             
1 43924U 19002C   26032.98799703  .00000098  00000+0  27965-4 0  9998
2 43924  86.3927  50.1749 0002254  91.5474 268.5981 14.34217921369593
